*******************************************************************************
Ephemeris / WWW_USER Fri Mar  7 10:46:06 2025 Pasadena, USA      / Horizons    
*******************************************************************************
Target body name: (2018 TB)                       {source: JPL#26}
Center body name: Earth (399)                     {source: DE441}
Center-site name: Mauna Kea
*******************************************************************************
Start time      : A.D. 2018-Aug-02 05:08:00.0000 UT      
Stop  time      : A.D. 2018-Aug-02 15:48:00.0000 UT      
Step-size       : 1 minutes
*******************************************************************************
Target pole/equ : undefined
Target radii    : undefined                                                    
Center geodetic : 204.5278, 19.8260847, 4.21024   {E-lon(deg),Lat(deg),Alt(km)}
Center cylindric: 204.5278, 6006.35451, 2151.0229 {E-lon(deg),Dxy(km),Dz(km)}
Center pole/equ : ITRF93                          {East-longitude positive}
Center radii    : 6378.137, 6378.137, 6356.752 km {Equator_a, b, pole_c}       
Target primary  : Sun
Vis. interferer : MOON (R_eq= 1737.400) km        {source: DE441}
Rel. light bend : Sun                             {source: DE441}
Rel. lght bnd GM: 1.3271E+11 km^3/s^2                                          
Small-body perts: Yes                             {source: SB441-N16}
Atmos refraction: NO (AIRLESS)
RA format       : HMS
Time format     : CAL 
Calendar mode   : Mixed Julian/Gregorian
RTS-only print  : NO       
EOP file        : eop.250306.p250602                                           
EOP coverage    : DATA-BASED 1962-JAN-20 TO 2025-MAR-06. PREDICTS-> 2025-JUN-01
Units conversion: 1 au= 149597870.700 km, c= 299792.458 km/s, 1 day= 86400.0 s 
Table cut-offs 1: Elevation (-90.0deg=NO ),Airmass (>38.000=NO), Daylight (YES)
Table cut-offs 2: Solar elongation (  0.0,180.0=NO ),Local Hour Angle( 0.0=NO )
Table cut-offs 3: RA/DEC angular rate (     0.0=NO )                           
*******************************************************************************
Initial IAU76/J2000 heliocentric ecliptic osculating elements (au, days, deg.):
  EPOCH=  2458410.5 ! 2018-Oct-19.00 (TDB)         Residual RMS= .12604        
   EC= .5817616216321111   QR= 1.001672821897195   TP= 2458383.1822299529      
   OM= 14.42282174156359   W=  341.1556337077549   IN= 3.61300419916586        
  Equivalent ICRF heliocentric cartesian coordinates (au, au/d):
   X= 9.381709462996228E-01  Y= 4.515017153732180E-01  Z= 2.129237315158303E-01
  VX=-5.799214133182419E-03 VY= 1.778204046057418E-02 VZ= 9.138573561666745E-03
Asteroid physical parameters (km, seconds, rotational period in hours):        
   GM= n.a.                RAD= n.a.               ROTPER= n.a.                
   H= 24.89                G= .150                 B-V= n.a.                   
                           ALBEDO= n.a.            STYP= n.a.                  
*******************************************************************************
 Date__(UT)__HR:MN     R.A._________(ICRF)_________DEC
******************************************************
$$SOE
 2018-Aug-02 05:08 C   17 02 28.374417 -38 51 20.45122
 2018-Aug-02 05:09 C   17 02 28.301691 -38 51 20.60256
 2018-Aug-02 05:10 C   17 02 28.228944 -38 51 20.75355
 2018-Aug-02 05:11 C   17 02 28.156178 -38 51 20.90417
 2018-Aug-02 05:12 C   17 02 28.083394 -38 51 21.05445
 2018-Aug-02 05:13 C   17 02 28.010590 -38 51 21.20436
 2018-Aug-02 05:14 C   17 02 27.937767 -38 51 21.35391
 2018-Aug-02 05:15 C   17 02 27.864927 -38 51 21.50310
 2018-Aug-02 05:16 C   17 02 27.792067 -38 51 21.65193
 2018-Aug-02 05:17 C   17 02 27.719190 -38 51 21.80041
 2018-Aug-02 05:18 C   17 02 27.646295 -38 51 21.94851
 2018-Aug-02 05:19 C   17 02 27.573383 -38 51 22.09626
 2018-Aug-02 05:20 C   17 02 27.500453 -38 51 22.24364
 2018-Aug-02 05:21 C   17 02 27.427506 -38 51 22.39066
 2018-Aug-02 05:22 N   17 02 27.354541 -38 51 22.53732
 2018-Aug-02 05:23 N   17 02 27.281561 -38 51 22.68361
 2018-Aug-02 05:24 N   17 02 27.208563 -38 51 22.82954
 2018-Aug-02 05:25 N   17 02 27.135549 -38 51 22.97510
 2018-Aug-02 05:26 N   17 02 27.062520 -38 51 23.12029
 2018-Aug-02 05:27 N   17 02 26.989474 -38 51 23.26512
 2018-Aug-02 05:28 N   17 02 26.916413 -38 51 23.40957
 2018-Aug-02 05:29 N   17 02 26.843336 -38 51 23.55366
 2018-Aug-02 05:30 N   17 02 26.770244 -38 51 23.69739
 2018-Aug-02 05:31 N   17 02 26.697137 -38 51 23.84074
 2018-Aug-02 05:32 N   17 02 26.624015 -38 51 23.98372
 2018-Aug-02 05:33 N   17 02 26.550878 -38 51 24.12633
 2018-Aug-02 05:34 N   17 02 26.477727 -38 51 24.26857
 2018-Aug-02 05:35 N   17 02 26.404562 -38 51 24.41044
 2018-Aug-02 05:36 N   17 02 26.331383 -38 51 24.55194
 2018-Aug-02 05:37 N   17 02 26.258191 -38 51 24.69307
 2018-Aug-02 05:38 N   17 02 26.184985 -38 51 24.83382
 2018-Aug-02 05:39 N   17 02 26.111765 -38 51 24.97420
 2018-Aug-02 05:40 N   17 02 26.038533 -38 51 25.11420
 2018-Aug-02 05:41 N   17 02 25.965288 -38 51 25.25384
 2018-Aug-02 05:42 N   17 02 25.892030 -38 51 25.39309
 2018-Aug-02 05:43 N   17 02 25.818760 -38 51 25.53197
 2018-Aug-02 05:44 N   17 02 25.745478 -38 51 25.67048
 2018-Aug-02 05:45 N   17 02 25.672183 -38 51 25.80861
 2018-Aug-02 05:46 N   17 02 25.598877 -38 51 25.94636
 2018-Aug-02 05:47 N   17 02 25.525560 -38 51 26.08374
 2018-Aug-02 05:48 N   17 02 25.452231 -38 51 26.22074
 2018-Aug-02 05:49 N   17 02 25.378891 -38 51 26.35736
 2018-Aug-02 05:50 A   17 02 25.305541 -38 51 26.49360
 2018-Aug-02 05:51 A   17 02 25.232180 -38 51 26.62947
 2018-Aug-02 05:52 A   17 02 25.158808 -38 51 26.76495
 2018-Aug-02 05:53 A   17 02 25.085426 -38 51 26.90006
 2018-Aug-02 05:54 A   17 02 25.012035 -38 51 27.03479
 2018-Aug-02 05:55 A   17 02 24.938633 -38 51 27.16914
 2018-Aug-02 05:56 A   17 02 24.865223 -38 51 27.30310
 2018-Aug-02 05:57 A   17 02 24.791803 -38 51 27.43669
 2018-Aug-02 05:58 A   17 02 24.718374 -38 51 27.56989
 2018-Aug-02 05:59 A   17 02 24.644936 -38 51 27.70272
 2018-Aug-02 06:00 A   17 02 24.571489 -38 51 27.83516
 2018-Aug-02 06:01 A   17 02 24.498035 -38 51 27.96722
 2018-Aug-02 06:02 A   17 02 24.424572 -38 51 28.09890
 2018-Aug-02 06:03 A   17 02 24.351101 -38 51 28.23019
 2018-Aug-02 06:04 A   17 02 24.277623 -38 51 28.36110
 2018-Aug-02 06:05 A   17 02 24.204137 -38 51 28.49163
 2018-Aug-02 06:06 A   17 02 24.130644 -38 51 28.62178
 2018-Aug-02 06:07 A   17 02 24.057143 -38 51 28.75154
 2018-Aug-02 06:08 A   17 02 23.983637 -38 51 28.88092
 2018-Aug-02 06:09 A   17 02 23.910123 -38 51 29.00991
 2018-Aug-02 06:10 A   17 02 23.836604 -38 51 29.13852
 2018-Aug-02 06:11 A   17 02 23.763078 -38 51 29.26674
 2018-Aug-02 06:12 A   17 02 23.689546 -38 51 29.39458
 2018-Aug-02 06:13 A   17 02 23.616009 -38 51 29.52203
 2018-Aug-02 06:14 A   17 02 23.542466 -38 51 29.64910
 2018-Aug-02 06:15 A   17 02 23.468919 -38 51 29.77579
 2018-Aug-02 06:16 A   17 02 23.395366 -38 51 29.90208
 2018-Aug-02 06:17 A   17 02 23.321809 -38 51 30.02799
 2018-Aug-02 06:18     17 02 23.248247 -38 51 30.15351
 2018-Aug-02 06:19     17 02 23.174680 -38 51 30.27865
 2018-Aug-02 06:20     17 02 23.101110 -38 51 30.40340
 2018-Aug-02 06:21     17 02 23.027536 -38 51 30.52777
 2018-Aug-02 06:22     17 02 22.953959 -38 51 30.65174
 2018-Aug-02 06:23     17 02 22.880378 -38 51 30.77533
 2018-Aug-02 06:24     17 02 22.806794 -38 51 30.89853
 2018-Aug-02 06:25     17 02 22.733207 -38 51 31.02135
 2018-Aug-02 06:26     17 02 22.659618 -38 51 31.14377
 2018-Aug-02 06:27     17 02 22.586026 -38 51 31.26581
 2018-Aug-02 06:28     17 02 22.512432 -38 51 31.38746
 2018-Aug-02 06:29     17 02 22.438836 -38 51 31.50873
 2018-Aug-02 06:30     17 02 22.365238 -38 51 31.62960
 2018-Aug-02 06:31     17 02 22.291638 -38 51 31.75009
 2018-Aug-02 06:32     17 02 22.218038 -38 51 31.87019
 2018-Aug-02 06:33     17 02 22.144436 -38 51 31.98990
 2018-Aug-02 06:34     17 02 22.070834 -38 51 32.10922
 2018-Aug-02 06:35     17 02 21.997231 -38 51 32.22815
 2018-Aug-02 06:36     17 02 21.923628 -38 51 32.34670
 2018-Aug-02 06:37     17 02 21.850024 -38 51 32.46485
 2018-Aug-02 06:38     17 02 21.776421 -38 51 32.58262
 2018-Aug-02 06:39     17 02 21.702818 -38 51 32.70000
 2018-Aug-02 06:40     17 02 21.629215 -38 51 32.81699
 2018-Aug-02 06:41     17 02 21.555614 -38 51 32.93359
 2018-Aug-02 06:42     17 02 21.482013 -38 51 33.04980
 2018-Aug-02 06:43  t  17 02 21.408414 -38 51 33.16562
 2018-Aug-02 06:44     17 02 21.334816 -38 51 33.28105
 2018-Aug-02 06:45     17 02 21.261220 -38 51 33.39610
 2018-Aug-02 06:46     17 02 21.187626 -38 51 33.51076
 2018-Aug-02 06:47     17 02 21.114034 -38 51 33.62502
 2018-Aug-02 06:48     17 02 21.040444 -38 51 33.73890
 2018-Aug-02 06:49     17 02 20.966857 -38 51 33.85239
 2018-Aug-02 06:50     17 02 20.893273 -38 51 33.96549
 2018-Aug-02 06:51     17 02 20.819692 -38 51 34.07820
 2018-Aug-02 06:52     17 02 20.746114 -38 51 34.19053
 2018-Aug-02 06:53     17 02 20.672540 -38 51 34.30246
 2018-Aug-02 06:54     17 02 20.598970 -38 51 34.41401
 2018-Aug-02 06:55     17 02 20.525404 -38 51 34.52517
 2018-Aug-02 06:56     17 02 20.451842 -38 51 34.63594
 2018-Aug-02 06:57     17 02 20.378284 -38 51 34.74632
 2018-Aug-02 06:58     17 02 20.304731 -38 51 34.85631
 2018-Aug-02 06:59     17 02 20.231184 -38 51 34.96592
 2018-Aug-02 07:00     17 02 20.157641 -38 51 35.07514
 2018-Aug-02 07:01     17 02 20.084104 -38 51 35.18397
 2018-Aug-02 07:02     17 02 20.010572 -38 51 35.29241
 2018-Aug-02 07:03     17 02 19.937046 -38 51 35.40046
 2018-Aug-02 07:04     17 02 19.863526 -38 51 35.50813
 2018-Aug-02 07:05     17 02 19.790013 -38 51 35.61541
 2018-Aug-02 07:06     17 02 19.716506 -38 51 35.72230
 2018-Aug-02 07:07     17 02 19.643006 -38 51 35.82881
 2018-Aug-02 07:08     17 02 19.569513 -38 51 35.93493
 2018-Aug-02 07:09     17 02 19.496027 -38 51 36.04066
 2018-Aug-02 07:10     17 02 19.422549 -38 51 36.14601
